NORAD_CAT_ID,OBJECT_NAME,OBJECT_TYPE,EPOCH,MEAN_MOTION,ECCENTRICITY,INCLINATION,RA_OF_ASC_NODE,ARG_OF_PERICENTER,MEAN_ANOMALY,BSTAR,MEAN_MOTION_DOT,MEAN_MOTION_DDOT,TLE_LINE0,TLE_LINE1,TLE_LINE2,SEMIMAJOR_AXIS,PERIOD,APOGEE,PERIGEE,DECAYED
51735.0,STARLINK-3517,PAYLOAD,2022-08-04 14:00:01,15.088187,0.0001816,53.2172,93.885,73.0708,291.4543,0.0029564,0.0004705,0.0,0 STARLINK-3517,1 51735U 22016X   22216.58334491  .00047050  00000-0  29564-2 0  9996,2 51735  53.2172  93.8850 0001816  73.0708 291.4543 15.08818700  1307,6917.945,95.439,541.067,538.554,0.0
51735.0,STARLINK-3517,PAYLOAD,2022-08-04 22:00:00,15.08850109,0.0001935,53.2173,92.3902,67.8812,308.2336,-0.001056,-0.0001706,0.0,0 STARLINK-3517,1 51735U 22016X   22216.91667824 -.00017060  00000-0 -10560-2 0  9998,2 51735  53.2173  92.3902 0001935  67.8812 308.2336 15.08850109  1305,6917.849,95.437,541.053,538.376,0.0
51735.0,STARLINK-3517,PAYLOAD,2022-08-05 06:00:02,15.08874669,0.0001855999999999,53.2173,90.8935,65.1337,322.639,-0.0040645,-0.00064458,0.0,0 STARLINK-3517,1 51735U 22016X   22217.25002315 -.00064458  00000-0 -40645-2 0  9994,2 51735  53.2173  90.8935 0001856  65.1337 322.6390 15.08874669 26550,6917.774,95.435,540.923,538.355,0.0
51735.0,STARLINK-3517,PAYLOAD,2022-08-05 14:00:01,15.0880971,0.0001766,53.2176,89.3957,72.2762,327.115,0.0028223,0.00044878,0.0,0 STARLINK-3517,1 51735U 22016X   22217.58335648  .00044878  00000-0  28223-2 0  9998,2 51735  53.2176  89.3957 0001766  72.2762 327.1150 15.08809710  1306,6917.973000000001,95.439,541.06,538.616,0.0
51735.0,STARLINK-3517,PAYLOAD,2022-08-05 22:00:00,15.08838843,0.0001904,53.2178,87.9012,66.7626,344.1442,-0.00083983,-0.00013629,0.0,0 STARLINK-3517,1 51735U 22016X   22217.91667824 -.00013629  00000-0 -83983-3 0  9996,2 51735  53.2178  87.9012 0001904  66.7626 344.1442 15.08838843  1307,6917.884,95.438,541.066,538.432,0.0
51735.0,STARLINK-3517,PAYLOAD,2022-08-06 00:00:02,15.08823212,0.0001911,53.218,87.5273,65.4744,78.3966,0.00135,0.00021253,0.0,0 STARLINK-3517,1 51735U 22016X   22218.00002315  .00021253  00000-0  13500-2 0  9992,2 51735  53.2180  87.5273 0001911  65.4744  78.3966 15.08823212 26667,6917.932,95.439,541.119,538.475,0.0
51735.0,STARLINK-3517,PAYLOAD,2022-08-06 14:00:01,15.08842304,0.0001786,53.2183,84.9068,72.1217,1.9712,-0.00015855,-2.811e-05,0.0,0 STARLINK-3517,1 51735U 22016X   22218.58334491 -.00002811  00000-0 -15855-3 0  9995,2 51735  53.2183  84.9068 0001786  72.1217   1.9712 15.08842304  1301,6917.873000000001,95.437,540.974,538.503,0.0
51735.0,STARLINK-3517,PAYLOAD,2022-08-06 21:37:20,15.08842625,0.0001730999999999,53.2195,83.4815,71.7685,288.3496,8.4128e-06,-1.54e-06,0.0,0 STARLINK-3517,1 51735U 22016X   22218.90092984 -.00000154  00000-0  84128-5 0  9997,2 51735  53.2195  83.4815 0001731  71.7685 288.3496 15.08842625 25685,6917.871999999999,95.437,540.935,538.54,0.0
51735.0,STARLINK-3517,PAYLOAD,2022-08-06 22:00:00,15.08825965,0.0001854,53.2185,83.4123,65.9011,19.7903,-0.00065563,-0.00010703,0.0,0 STARLINK-3517,1 51735U 22016X   22218.91667824 -.00010703  00000-0 -65563-3 0  9991,2 51735  53.2185  83.4123 0001854  65.9011  19.7903 15.08825965 26802,6917.9230000000025,95.438,541.071,538.506,0.0
51735.0,STARLINK-3517,PAYLOAD,2022-08-07 14:00:01,15.08824086,0.0001769,53.2191,80.418,72.8742,35.9771,0.0020158,0.00031925,0.0,0 STARLINK-3517,1 51735U 22016X   22219.58334491  .00031925  00000-0  20158-2 0  9993,2 51735  53.2191  80.4180 0001769  72.8742  35.9771 15.08824086  1306,6917.929,95.439,541.018,538.57,0.0
51735.0,STARLINK-3517,PAYLOAD,2022-08-07 21:28:07,15.08835501,0.0001776,53.2193,79.0222,69.8029,290.3154,3.3266e-05,2.41e-06,0.0,0 STARLINK-3517,1 51735U 22016X   22219.89453529  .00000241  00000-0  33266-4 0  9994,2 51735  53.2193  79.0222 0001776  69.8029 290.3154 15.08835501 25831,6917.894,95.438,540.988,538.531,0.0
51735.0,STARLINK-3517,PAYLOAD,2022-08-08 14:00:01,15.08866734,0.0001686,53.2194,75.9293,74.1067,69.6205,-0.00098489,-0.0001594,0.0,0 STARLINK-3517,1 51735U 22016X   22220.58335648 -.00015940  00000-0 -98489-3 0  9994,2 51735  53.2194  75.9293 0001686  74.1067  69.6205 15.08866734 27058,6917.799,95.436,540.83,538.497,0.0
51735.0,STARLINK-3517,PAYLOAD,2022-08-08 22:00:00,15.08850237,0.0001696999999999,53.2192,74.4349,65.4159,89.8705,-0.00034125,-5.717e-05,0.0,0 STARLINK-3517,1 51735U 22016X   22220.91667824 -.00005717  00000-0 -34125-3 0  9993,2 51735  53.2192  74.4349 0001697  65.4159  89.8705 15.08850237  1309,6917.849,95.437,540.888,538.54,0.0
51735.0,STARLINK-3517,PAYLOAD,2022-08-09 14:00:01,15.088178699999998,0.0001414,53.2192,71.4407,73.2423,105.2406,0.00032351,4.861e-05,0.0,0 STARLINK-3517,1 51735U 22016X   22221.58334491  .00004861  00000-0  32351-3 0  9994,2 51735  53.2192  71.4407 0001414  73.2423 105.2406 15.08817870  1306,6917.948,95.439,540.7909999999998,538.835,0.0
51735.0,STARLINK-3517,PAYLOAD,2022-08-09 22:00:00,15.08807322,0.0001492,53.2189,69.9462,63.5112,126.5425,0.00082967,0.00012929,0.0,0 STARLINK-3517,1 51735U 22016X   22221.91667824  .00012929  00000-0  82967-3 0  9992,2 51735  53.2189  69.9462 0001492  63.5112 126.5425 15.08807322  1306,6917.98,95.44,540.877,538.813,0.0
51735.0,STARLINK-3517,PAYLOAD,2022-08-10 14:00:01,15.08829057,0.0001394,53.2186,66.952,74.6717,138.5171,0.00095638,0.00014961,0.0,0 STARLINK-3517,1 51735U 22016X   22222.58334491  .00014961  00000-0  95638-3 0  9994,2 51735  53.2186  66.9520 0001394  74.6717 138.5171 15.08829057  1300,6917.9140000000025,95.438,540.743,538.814,0.0
51735.0,STARLINK-3517,PAYLOAD,2022-08-10 22:00:00,15.08821148,0.0001498,53.2183,65.4573,64.783,159.9953,0.0012231,0.00019221,0.0,0 STARLINK-3517,1 51735U 22016X   22222.91667824  .00019221  00000-0  12231-2 0  9991,2 51735  53.2183  65.4573 0001498  64.7830 159.9953 15.08821148  1308,6917.938,95.439,540.839,538.7669999999998,0.0
51735.0,STARLINK-3517,PAYLOAD,2022-08-11 06:00:02,15.08850841,0.00014,53.2179,63.9597,68.1324,168.2876,-0.0017018,-0.00027278,0.0,0 STARLINK-3517,1 51735U 22016X   22223.25002315 -.00027278  00000-0 -17018-2 0  9998,2 51735  53.2179  63.9597 0001400  68.1324 168.2876 15.08850841 27454,6917.847,95.437,540.681,538.744,0.0
51735.0,STARLINK-3517,PAYLOAD,2022-08-11 14:00:01,15.08845641,0.0001423,53.2179,62.4628,75.2148,172.7334,0.00049243,7.559e-05,0.0,0 STARLINK-3517,1 51735U 22016X   22223.58334491  .00007559  00000-0  49243-3 0  9991,2 51735  53.2179  62.4628 0001423  75.2148 172.7334 15.08845641  1308,6917.863,95.437,540.7130000000002,538.744,0.0
51735.0,STARLINK-3517,PAYLOAD,2022-08-11 22:00:00,15.08840512,0.0001495,53.2178,60.9681,64.5918,194.9648,0.00037726,5.721e-05,0.0,0 STARLINK-3517,1 51735U 22016X   22223.91667824  .00005721  00000-0  37726-3 0  9999,2 51735  53.2178  60.9681 0001495  64.5918 194.9648 15.08840512 27555,6917.879,95.438,540.778,538.71,0.0
51735.0,STARLINK-3517,PAYLOAD,2022-08-12 14:00:01,15.08844221,0.0001339,53.2178,57.9734,72.3459,210.4033,0.00049577,7.612e-05,0.0,0 STARLINK-3517,1 51735U 22016X   22224.58334491  .00007612  00000-0  49577-3 0  9992,2 51735  53.2178  57.9734 0001339  72.3459 210.4033 15.08844221  1302,6917.8669999999975,95.437,540.659,538.806,0.0
51735.0,STARLINK-3517,PAYLOAD,2022-08-12 22:00:01,15.0882818,0.0001488,53.2179,56.4786,62.2149,232.2002,0.0019495,0.00030865,0.0,0 STARLINK-3517,1 51735U 22016X   22224.91668981  .00030865  00000-0  19495-2 0  9994,2 51735  53.2179  56.4786 0001488  62.2149 232.2002 15.08828180  1307,6917.917,95.438,540.811,538.752,0.0
51735.0,STARLINK-3517,PAYLOAD,2022-08-13 14:00:01,15.08840143,0.0001467,53.2176,53.4797,72.0782,245.437,-0.0012062,-0.00019433,0.0,0 STARLINK-3517,1 51735U 22016X   22225.58334491 -.00019433  00000-0 -12062-2 0  9997,2 51735  53.2176  53.4797 0001467  72.0782 245.4370 15.08840143  1309,6917.88,95.438,540.76,538.73,0.0
51735.0,STARLINK-3517,PAYLOAD,2022-08-13 22:00:00,15.08790073,0.000153,53.2175,51.9824,59.9511,269.1606,0.0038092,0.00060775,0.0,0 STARLINK-3517,1 51735U 22016X   22225.91667824  .00060775  00000-0  38092-2 0  9997,2 51735  53.2175  51.9824 0001530  59.9511 269.1606 15.08790073  1308,6918.033,95.441,540.956,538.84,0.0
51735.0,STARLINK-3517,PAYLOAD,2022-08-14 14:00:01,15.08858314,0.0001536,53.219,48.9948,70.6306,281.6471,-0.00033904,-5.683e-05,0.0,0 STARLINK-3517,1 51735U 22016X   22226.58334491 -.00005683  00000-0 -33904-3 0  9999,2 51735  53.2190  48.9948 0001536  70.6306 281.6471 15.08858314  1308,6917.824000000001,95.436,540.752,538.627,0.0
51735.0,STARLINK-3517,PAYLOAD,2022-08-14 16:00:01,15.088659699999996,0.0001569,53.2189,48.6212,67.723,17.5184,-0.0018620999999999,-0.00029822,0.0,0 STARLINK-3517,1 51735U 22016X   22226.66668981 -.00029822  00000-0 -18621-2 0  9991,2 51735  53.2189  48.6212 0001569  67.7230  17.5184 15.08865970 27970,6917.801,95.436,540.751,538.581,0.0
51735.0,STARLINK-3517,PAYLOAD,2022-08-14 22:00:00,15.08841301,0.0001598,53.2191,47.5001,61.6105,302.2835,-0.00013397,-2.42e-05,0.0,0 STARLINK-3517,1 51735U 22016X   22226.91667824 -.00002420  00000-0 -13397-3 0  9995,2 51735  53.2191  47.5001 0001598  61.6105 302.2835 15.08841301  1301,6917.876,95.437,540.847,538.636,0.0
51735.0,STARLINK-3517,PAYLOAD,2022-08-15 14:00:01,15.08852635,0.0001431,53.2196,44.5059,68.546,318.527,-0.0008118,-0.00013189,0.0,0 STARLINK-3517,1 51735U 22016X   22227.58334491 -.00013189  00000-0 -81180-3 0  9999,2 51735  53.2196  44.5059 0001431  68.5460 318.5270 15.08852635  1307,6917.842,95.437,540.697,538.717,0.0
51735.0,STARLINK-3517,PAYLOAD,2022-08-15 16:00:00,15.08856985,0.0001462,53.2196,44.1323,65.6325,54.3409,-0.0018396,-0.00029459,0.0,0 STARLINK-3517,1 51735U 22016X   22227.66667824 -.00029459  00000-0 -18396-2 0  9992,2 51735  53.2196  44.1323 0001462  65.6325  54.3409 15.08856985 28129,6917.828,95.436,540.705,538.682,0.0
